{
"type": "FeatureCollection",
"name": "pois_epron_2",
"crs": { "type": "name", "properties": { "name": "urn:ogc:def:crs:OGC:1.3:CRS84" } },
"features": [
{ "type": "Feature", "properties": { "id": 8, "nom": "Gymnase d'Épron", "adresse": "31 Rue Éole, 14610 Épron", "lien": "https://lecaennais.fr/blog/ouverture-stadium-caen/", "desc": null, "tel": null, "catégorie": "Sports & loisirs" }, "geometry": { "type": "Point", "coordinates": [ -0.374791026806249, 49.220041675410094 ] } },
{ "type": "Feature", "properties": { "id": 9, "nom": "Mairie", "adresse": "Pl. Francis Bernard, 14610 Épron", "lien": "https://www.mairie-epron.fr/", "desc": null, "tel": null, "catégorie": "Services publics" }, "geometry": { "type": "Point", "coordinates": [ -0.370526194239902, 49.222735123214989 ] } },
{ "type": "Feature", "properties": { "id": 10, "nom": "Salle des fêtes", "adresse": null, "lien": null, "desc": null, "tel": "02 31 44 51 42", "catégorie": "Social" }, "geometry": { "type": "Point", "coordinates": [ -0.370668562413701, 49.222801464771351 ] } },
{ "type": "Feature", "properties": { "id": 11, "nom": "La Grange aux Livres", "adresse": "24 Rue de l'Église, 14610 Épron", "lien": "https://www.mairie-epron.fr/fr/mediatheque-d-epron-gc14.html", "desc": "Médiathèque", "tel": "02 31 74 51 20", "catégorie": "Culture" }, "geometry": { "type": "Point", "coordinates": [ -0.373032380664852, 49.221201052975552 ] } },
{ "type": "Feature", "properties": { "id": 12, "nom": "Crèche Molécule", "adresse": "1 Esp. des Libérateurs, 14610 Épron", "lien": "https://www.mairie-epron.fr/fr/creche-parentale-gc30.html", "desc": null, "tel": "02 31 06 05 75", "catégorie": "Éducation" }, "geometry": { "type": "Point", "coordinates": [ -0.374097104577291, 49.219843803953211 ] } },
{ "type": "Feature", "properties": { "id": 13, "nom": "Cimetière paysager", "adresse": "21 Rue de la Croix Cantee, 14610 Épron", "lien": "https://www.mairie-epron.fr/fr/cimetiere-gc49.html", "desc": null, "tel": null, "catégorie": "Cimetière" }, "geometry": { "type": "Point", "coordinates": [ -0.375234201173615, 49.224543799811705 ] } },
{ "type": "Feature", "properties": { "id": 14, "nom": "Terrains de tennis", "adresse": "Rue de l'Amitié, 14610 Épron", "lien": "https://www.mairie-epron.fr/fr/acces-aux-courts-de-tennis-gc86.html", "desc": null, "tel": null, "catégorie": "Sports & loisirs" }, "geometry": { "type": "Point", "coordinates": [ -0.37153636257246, 49.21790992827728 ] } },
{ "type": "Feature", "properties": { "id": 15, "nom": "Le Faitout", "adresse": "10 Rue de l'Église, 14610 Épron", "lien": "https://www.mairie-epron.fr/fr/espace-de-vie-sociale-gc144.html", "desc": "Espace de vie sociale", "tel": null, "catégorie": "Social" }, "geometry": { "type": "Point", "coordinates": [ -0.372933313675444, 49.222212177194876 ] } },
{ "type": "Feature", "properties": { "id": 16, "nom": "Église Saint-Ursin", "adresse": "Rue de l'Église, 14610 Épron", "lien": "https://www.mairie-epron.fr/fr/vie-paroissiale--gc48.html", "desc": null, "tel": null, "catégorie": "Patrimoine" }, "geometry": { "type": "Point", "coordinates": [ -0.372622401554455, 49.221371743918688 ] } },
{ "type": "Feature", "properties": { "id": 17, "nom": "Groupe scolaire François Langlois", "adresse": "Rue François Langlois, 14610 Épron", "lien": "https://www.mairie-epron.fr/fr/la-scolarite-gc6.html", "desc": "École maternelle et élémentaire", "tel": "02 31 43 76 92", "catégorie": "Éducation" }, "geometry": { "type": "Point", "coordinates": [ -0.370521006125093, 49.220346853775922 ] } },
{ "type": "Feature", "properties": { "id": 1, "nom": "Terrain de football Caen Nord", "adresse": null, "lien": null, "desc": null, "tel": null, "catégorie": "Sports & loisirs" }, "geometry": { "type": "Point", "coordinates": [ -0.370243557534195, 49.214840662136652 ] } },
{ "type": "Feature", "properties": { "id": 2, "nom": "ENSI Caen", "adresse": "6 Bd Maréchal Juin, 14000 Caen", "lien": "https://www.ensicaen.fr/", "desc": "École d'ingénieur", "tel": "02 31 45 27 50", "catégorie": "Éducation" }, "geometry": { "type": "Point", "coordinates": [ -0.367171138001118, 49.214667269787299 ] } },
{ "type": "Feature", "properties": { "id": 3, "nom": "BUILDERS École d'ingénieurs", "adresse": "1 Rue Pierre et Marie Curie, 14610 Épron", "lien": "http://www.builders-ingenieurs.fr/", "desc": null, "tel": "02 31 46 23 00", "catégorie": "Éducation" }, "geometry": { "type": "Point", "coordinates": [ -0.366418705229504, 49.216215361610629 ] } },
{ "type": "Feature", "properties": { "id": 4, "nom": "Maison de l'Ingénieur\n", "adresse": "3 Rue Pierre et Marie Curie, 14610 Épron", "lien": "http://www.partelios.fr/", "desc": "Centre d'hébergement pour étudiants", "tel": "02 31 06 91 00", "catégorie": "Social" }, "geometry": { "type": "Point", "coordinates": [ -0.367452940044914, 49.2161576427158 ] } },
{ "type": "Feature", "properties": { "id": 6, "nom": "Panier de basketball", "adresse": null, "lien": null, "desc": null, "tel": null, "catégorie": "Sports & loisirs" }, "geometry": { "type": "Point", "coordinates": [ -0.374342032096993, 49.221581335807151 ] } },
{ "type": "Feature", "properties": { "id": 7, "nom": "Aire de jeux", "adresse": "35 Rue Éole, 14610 Épron", "lien": null, "desc": null, "tel": null, "catégorie": "Sports & loisirs" }, "geometry": { "type": "Point", "coordinates": [ -0.373772714199059, 49.219687034274678 ] } }
]
}
